OBJECT_NAME,OBJECT_ID,EPOCH,MEAN_MOTION,ECCENTRICITY,INCLINATION,RA_OF_ASC_NODE,ARG_OF_PERICENTER,MEAN_ANOMALY,EPHEMERIS_TYPE,CLASSIFICATION_TYPE,NORAD_CAT_ID,ELEMENT_SET_NO,REV_AT_EPOCH,BSTAR,MEAN_MOTION_DOT,MEAN_MOTION_DDOT
SL-8 R/B,1985-006B,2026-06-15T03:29:08.238336,14.37834321,.00188036,74.0460,81.8217,329.3037,134.2416,0,U,15483,999,16803,.71725476E-4,.19E-5,0
SL-12 R/B(2),1985-042D,2026-06-15T08:00:55.834848,14.22005574,.0036232,71.1079,241.4316,330.5615,94.5134,0,U,15772,999,12827,.71331603E-4,.111E-5,0
SL-14 R/B,1985-069B,2026-06-15T01:58:46.746336,14.86514118,.00176399,82.5268,293.3453,226.5338,133.4412,0,U,15945,999,18730,.41730018E-4,.394E-5,0
SL-16 R/B,1985-097B,2026-06-15T02:24:37.951200,14.16610497,.00054243,71.0034,295.4713,115.8184,56.5755,0,U,16182,999,10102,-.86970711E-4,-.221E-5,0
SL-14 R/B,1986-006B,2026-06-15T02:24:03.488832,14.86943873,.00750768,82.5262,168.0775,310.5209,48.9483,0,U,16496,999,16368,.51538957E-4,.51E-5,0
COSMOS 1743,1986-034A,2026-06-14T21:52:32.620224,15.66765067,.0003799,82.5272,331.1512,281.7303,78.3531,0,U,16719,999,19543,.42289E-3,.44678E-3,0
SL-14 R/B,1986-046B,2026-06-14T23:56:36.415680,14.85669760,.00215844,82.4816,348.2446,266.1808,93.6941,0,U,16792,999,14085,.37258108E-4,.348E-5,0
SL-14 R/B,1986-055B,2026-06-15T03:15:20.275776,14.85721895,.00192575,82.5205,35.0618,14.3631,105.3857,0,U,16882,999,13383,.3828177E-4,.358E-5,0
AJISAI (EGS),1986-061A,2026-06-15T05:36:55.999872,12.44516860,.00112239,50.0065,153.4009,175.6674,9.7729,0,U,16908,999,48014,-.2846352E-4,-.101E-5,0
SL-14 R/B,1987-024B,2026-06-14T23:53:49.147872,14.86211875,.00169068,82.5279,1.3106,301.1334,58.8223,0,U,17567,999,10258,.35117159E-4,.333E-5,0
COSMOS 1833,1987-027A,2026-06-15T06:25:34.745664,14.13048561,.00227399,70.9175,120.9026,58.3302,302.0033,0,U,17589,999,2410,.19200257E-3,.311E-5,0
SL-16 R/B,1987-027B,2026-06-15T04:03:37.083744,14.17172217,.00064563,71.0033,71.0811,314.5193,45.5402,0,U,17590,999,2915,-.80206905E-4,-.21E-5,0
SL-14 R/B,1987-038B,2026-06-15T04:12:36.351072,14.85444103,.00187056,82.5009,204.9672,197.9573,162.0984,0,U,17912,999,9370,.32510294E-4,.305E-5,0
COSMOS 1844,1987-041A,2026-06-15T06:26:43.428480,14.14568322,.00329935,70.8972,188.3547,238.3230,121.4673,0,U,17973,999,1738,-.64315539E-4,-.173E-5,0
SL-14 R/B,1987-055B,2026-06-15T06:28:46.014528,14.85709944,.00218246,82.4995,257.0363,53.7011,306.6216,0,U,18153,999,8442,.37814757E-4,.354E-5,0
COSMOS 1867,1987-060A,2026-06-14T23:13:15.262464,14.31515574,.00164808,65.0116,34.2750,282.1461,77.7776,0,U,18187,999,3386,.22818883E-4,-.39E-6,0
SL-14 R/B,1988-001B,2026-06-15T06:31:27.550560,14.85608335,.00164633,82.5132,103.5755,276.4867,83.4475,0,U,18749,999,5651,.36655985E-4,.342E-5,0
COSMOS 1933,1988-020A,2026-06-15T01:27:41.157792,15.18700454,.00032787,82.5117,154.5406,192.4950,167.6204,0,U,18958,999,6500,.15566611E-3,.3259E-4,0
SL-3 R/B,1988-032B,2026-06-15T06:27:43.992288,15.20827720,.00237394,97.5250,149.3118,252.1791,107.6855,0,U,19046,999,6693,.1457373E-3,.3166E-4,0
SL-16 R/B,1988-039B,2026-06-15T06:55:55.950528,14.19629431,.00223905,71.0140,222.1723,195.9929,164.0492,0,U,19120,999,97223,-.17363123E-4,-.85E-6,0
COSMOS 1953,1988-050A,2026-06-15T04:29:56.470560,15.29953603,.00120025,82.5085,60.0512,132.3773,227.8485,0,U,19210,999,5268,.22947528E-3,.67E-4,0
SL-8 R/B,1988-053B,2026-06-15T01:56:02.647680,14.38966708,.00191572,74.0479,292.9404,89.0512,84.0769,0,U,19257,999,99060,.55272614E-4,.145E-5,0
COSMOS 1975,1988-093A,2026-06-15T01:27:11.269440,15.29302834,.00111122,82.5190,19.8417,178.8575,181.2693,0,U,19573,999,3428,.22545723E-3,.6451E-4,0
SL-14 R/B,1988-093B,2026-06-14T22:14:03.519168,14.85740353,.002214,82.5310,310.7673,77.4125,42.0535,0,U,19574,999,1545,.41275E-4,.385E-5,0
SL-16 R/B,1988-102B,2026-06-15T02:21:17.544672,14.16164815,.00159067,71.0001,306.5350,228.3315,131.6448,0,U,19650,999,94068,-.93990839E-4,-.234E-5,0
INTERCOSMOS 24,1989-080A,2026-06-15T02:38:56.934816,12.59658877,.11883857,82.6067,40.9963,66.7196,305.4404,0,U,20261,999,67906,.23404388E-3,.826E-5,0
SL-14 R/B,1989-080C,2026-06-15T05:49:02.082144,12.50569691,.12288534,82.5930,110.5571,321.8525,30.1437,0,U,20262,999,67234,.79786967E-4,.267E-5,0
DELTA 1 R/B,1989-089B,2026-06-15T01:56:48.499296,14.50730215,.00690762,97.0636,357.9764,173.6083,186.6013,0,U,20323,999,90985,.78312992E-4,.282E-5,0
ARIANE 40 R/B,1990-005H,2026-06-15T04:02:39.096384,14.39926388,.00088063,98.2960,223.8472,271.3450,88.6730,0,U,20443,999,90683,.80066565E-4,.21E-5,0
DELTA 2 R/B(1),1990-008B,2026-06-14T15:28:31.018944,15.68462821,.00653998,35.6000,252.6630,90.2292,270.5942,0,U,20453,999,94130,.59845723E-3,.79796E-3,0
