SL-8 R/B                
1 15483U 85006B   26166.14523424  .00000190  00000+0  71725-4 0  9991
2 15483  74.0460  81.8217 0018803 329.3037 134.2416 14.37834321168033
SL-12 R/B(2)            
1 15772U 85042D   26166.33397957  .00000111  00000+0  71332-4 0  9990
2 15772  71.1079 241.4316 0036232 330.5615  94.5134 14.22005574128275
SL-14 R/B               
1 15945U 85069B   26166.08248549  .00000394  00000+0  41730-4 0  9997
2 15945  82.5268 293.3453 0017639 226.5338 133.4412 14.86514118187307
SL-16 R/B               
1 16182U 85097B   26166.10043925 -.00000221  00000+0 -86971-4 0  9993
2 16182  71.0034 295.4713 0005424 115.8184  56.5755 14.16610497101025
SL-14 R/B               
1 16496U 86006B   26166.10004038  .00000510  00000+0  51539-4 0  9995
2 16496  82.5262 168.0775 0075076 310.5209  48.9483 14.86943873163685
COSMOS 1743             
1 16719U 86034A   26165.91148866  .00044678  00000+0  42289-3 0  9994
2 16719  82.5272 331.1512 0003799 281.7303  78.3531 15.66765067195438
SL-14 R/B               
1 16792U 86046B   26165.99764370  .00000348  00000+0  37258-4 0  9997
2 16792  82.4816 348.2446 0021584 266.1808  93.6941 14.85669760140850
SL-14 R/B               
1 16882U 86055B   26166.13565134  .00000358  00000+0  38282-4 0  9990
2 16882  82.5205  35.0618 0019257  14.3631 105.3857 14.85721895133831
AJISAI (EGS)            
1 16908U 86061A   26166.23398148 -.00000101  00000+0 -28464-4 0  9995
2 16908  50.0065 153.4009 0011223 175.6674   9.7729 12.44516860480147
SL-14 R/B               
1 17567U 87024B   26165.99570773  .00000333  00000+0  35117-4 0  9993
2 17567  82.5279   1.3106 0016906 301.1334  58.8223 14.86211875102586
COSMOS 1833             
1 17589U 87027A   26166.26776326  .00000311  00000+0  19200-3 0  9993
2 17589  70.9175 120.9026 0022739  58.3302 302.0033 14.13048561 24106
SL-16 R/B               
1 17590U 87027B   26166.16917921 -.00000210  00000+0 -80207-4 0  9998
2 17590  71.0033  71.0811 0006456 314.5193  45.5402 14.17172217 29153
SL-14 R/B               
1 17912U 87038B   26166.17542073  .00000305  00000+0  32510-4 0  9998
2 17912  82.5009 204.9672 0018705 197.9573 162.0984 14.85444103 93701
COSMOS 1844             
1 17973U 87041A   26166.26855820 -.00000173  00000+0 -64316-4 0  9990
2 17973  70.8972 188.3547 0032993 238.3230 121.4673 14.14568322 17384
SL-14 R/B               
1 18153U 87055B   26166.26997702  .00000354  00000+0  37815-4 0  9995
2 18153  82.4995 257.0363 0021824  53.7011 306.6216 14.85709944 84420
COSMOS 1867             
1 18187U 87060A   26165.96753776 -.00000039  00000+0  22819-4 0  9994
2 18187  65.0116  34.2750 0016480 282.1461  77.7776 14.31515574 33867
SL-14 R/B               
1 18749U 88001B   26166.27184665  .00000342  00000+0  36656-4 0  9994
2 18749  82.5132 103.5755 0016463 276.4867  83.4475 14.85608335 56519
COSMOS 1933             
1 18958U 88020A   26166.06089303  .00003259  00000+0  15567-3 0  9994
2 18958  82.5117 154.5406 0003278 192.4950 167.6204 15.18700454 65004
SL-3 R/B                
1 19046U 88032B   26166.26925917  .00003166  00000+0  14574-3 0  9992
2 19046  97.5250 149.3118 0023739 252.1791 107.6855 15.20827720 66938
SL-16 R/B               
1 19120U 88039B   26166.28884202 -.00000085  00000+0 -17363-4 0  9994
2 19120  71.0140 222.1723 0022390 195.9929 164.0492 14.19629431972236
COSMOS 1953             
1 19210U 88050A   26166.18745915  .00006700  00000+0  22948-3 0  9995
2 19210  82.5085  60.0512 0012002 132.3773 227.8485 15.29953603 52688
SL-8 R/B                
1 19257U 88053B   26166.08058620  .00000145  00000+0  55273-4 0  9993
2 19257  74.0479 292.9404 0019157  89.0512  84.0769 14.38966708990605
COSMOS 1975             
1 19573U 88093A   26166.06054710  .00006451  00000+0  22546-3 0  9994
2 19573  82.5190  19.8417 0011112 178.8575 181.2693 15.29302834 34283
SL-14 R/B               
1 19574U 88093B   26165.92642962  .00000385  00000+0  41275-4 0  9992
2 19574  82.5310 310.7673 0022140  77.4125  42.0535 14.85740353 15453
SL-16 R/B               
1 19650U 88102B   26166.09811973 -.00000234  00000+0 -93991-4 0  9994
2 19650  71.0001 306.5350 0015906 228.3315 131.6448 14.16164815940680
INTERCOSMOS 24          
1 20261U 89080A   26166.11038119  .00000826  00000+0  23404-3 0  9992
2 20261  82.6067  40.9963 1188385  66.7196 305.4404 12.59658877679068
SL-14 R/B               
1 20262U 89080C   26166.24238521  .00000267  00000+0  79787-4 0  9991
2 20262  82.5930 110.5571 1228853 321.8525  30.1437 12.50569691672340
DELTA 1 R/B             
1 20323U 89089B   26166.08111689  .00000282  00000+0  78313-4 0  9996
2 20323  97.0636 357.9764 0069076 173.6083 186.6013 14.50730215909854
ARIANE 40 R/B           
1 20443U 90005H   26166.16850806  .00000210  00000+0  80067-4 0  9999
2 20443  98.2960 223.8472 0008806 271.3450  88.6730 14.39926388906832
DELTA 2 R/B(1)          
1 20453U 90008B   26165.64480346  .00079796  00000+0  59846-3 0  9998
2 20453  35.6000 252.6630 0065399  90.2292 270.5942 15.68462821941309
